{"type": "FeatureCollection", "features": [ {"type": "Feature", "properties": {"norad_id": 37834, "name": "INTELSAT 18 (IS-18)", "group": "intelsat", "lat": 0.03447880226034313, "lon": 45.10351101527555, "alt_km": 35793.13583092027, "timestamp": "2025-12-09T09:46:47.314876+00:00", "meta": {"OBJECT_NAME": "INTELSAT 18 (IS-18)", "OBJECT_ID": "2011-056A", "EPOCH": "2025-12-09T02:26:43.035072", "MEAN_MOTION": 1.00271197, "ECCENTRICITY": 0.0002074, "INCLINATION": 0.0176, "RA_OF_ASC_NODE": 340.5997, "ARG_OF_PERICENTER": 282.5896, "MEAN_ANOMALY": 31.5846, "EPHEMERIS_TYPE": 0, "CLASSIFICATION_TYPE": "U", "NORAD_CAT_ID": 37834, "ELEMENT_SET_NO": 999, "REV_AT_EPOCH": 5190, "BSTAR": 0, "MEAN_MOTION_DOT": 5.5e-07, "MEAN_MOTION_DDOT": 0}, "tle": {"line1": "1 37834U 11056A   25343.10188698  .00000055  00000+0  00000+0 0  9994", "line2": "2 37834   0.0176 340.5997 0002074 282.5896  31.5846  1.00271197 51901"}}, "geometry": {"type": "Point", "coordinates": [45.10351101527555, 0.03447880226034313]}}, {"type": "Feature", "properties": {"norad_id": 38098, "name": "INTELSAT 22 (IS-22)", "group": "intelsat", "lat": -0.015160835219200003, "lon": -62.77977108834147, "alt_km": 35779.974609906465, "timestamp": "2025-12-09T09:46:47.314890+00:00", "meta": {"OBJECT_NAME": "INTELSAT 22 (IS-22)", "OBJECT_ID": "2012-011A", "EPOCH": "2025-12-08T23:20:38.624928", "MEAN_MOTION": 1.00274102, "ECCENTRICITY": 0.00015396, "INCLINATION": 0.0193, "RA_OF_ASC_NODE": 310.404, "ARG_OF_PERICENTER": 313.6812, "MEAN_ANOMALY": 236.1604, "EPHEMERIS_TYPE": 0, "CLASSIFICATION_TYPE": "U", "NORAD_CAT_ID": 38098, "ELEMENT_SET_NO": 999, "REV_AT_EPOCH": 528, "BSTAR": 0, "MEAN_MOTION_DOT": -5.7e-07, "MEAN_MOTION_DDOT": 0}, "tle": {"line1": "1 38098U 12011A   25342.97266927 -.00000057  00000+0  00000+0 0  9998", "line2": "2 38098   0.0193 310.4040 0001539 313.6812 236.1604  1.00274102  5281"}}, "geometry": {"type": "Point", "coordinates": [-62.77977108834147, -0.015160835219200003]}}, {"type": "Feature", "properties": {"norad_id": 38356, "name": "INTELSAT 19 (IS-19)", "group": "intelsat", "lat": 0.02390607408616698, "lon": 31.12976984404312, "alt_km": 35794.85478350202, "timestamp": "2025-12-09T09:46:47.314902+00:00", "meta": {"OBJECT_NAME": "INTELSAT 19 (IS-19)", "OBJECT_ID": "2012-030A", "EPOCH": "2025-12-09T03:34:38.599104", "MEAN_MOTION": 1.00271628, "ECCENTRICITY": 0.0003541, "INCLINATION": 0.0095, "RA_OF_ASC_NODE": 336.3973, "ARG_OF_PERICENTER": 289.1389, "MEAN_ANOMALY": 32.2731, "EPHEMERIS_TYPE": 0, "CLASSIFICATION_TYPE": "U", "NORAD_CAT_ID": 38356, "ELEMENT_SET_NO": 999, "REV_AT_EPOCH": 4854, "BSTAR": 0, "MEAN_MOTION_DOT": -5.4e-07, "MEAN_MOTION_DDOT": 0}, "tle": {"line1": "1 38356U 12030A   25343.14905786 -.00000054  00000+0  00000+0 0  9996", "line2": "2 38356   0.0095 336.3973 0003541 289.1389  32.2731  1.00271628 48544"}}, "geometry": {"type": "Point", "coordinates": [31.12976984404312, 0.02390607408616698]}}, {"type": "Feature", "properties": {"norad_id": 38740, "name": "INTELSAT 20 (IS-20)", "group": "intelsat", "lat": -0.012691906585783246, "lon": -66.36291682685685, "alt_km": 35791.50686036263, "timestamp": "2025-12-09T09:46:47.314915+00:00", "meta": {"OBJECT_NAME": "INTELSAT 20 (IS-20)", "OBJECT_ID": "2012-043A", "EPOCH": "2025-12-09T03:37:36.247008", "MEAN_MOTION": 1.00269877, "ECCENTRICITY": 0.0003101, "INCLINATION": 0.001, "RA_OF_ASC_NODE": 36.655, "ARG_OF_PERICENTER": 144.7813, "MEAN_ANOMALY": 19.6244, "EPHEMERIS_TYPE": 0, "CLASSIFICATION_TYPE": "U", "NORAD_CAT_ID": 38740, "ELEMENT_SET_NO": 999, "REV_AT_EPOCH": 4884, "BSTAR": 0, "MEAN_MOTION_DOT": -2.2e-07, "MEAN_MOTION_DDOT": 0}, "tle": {"line1": "1 38740U 12043A   25343.15111397 -.00000022  00000+0  00000+0 0  9990", "line2": "2 38740   0.0010  36.6550 0003101 144.7813  19.6244  1.00269877 48843"}}, "geometry": {"type": "Point", "coordinates": [-66.36291682685685, -0.012691906585783246]}}, {"type": "Feature", "properties": {"norad_id": 38749, "name": "INTELSAT 21 (IS-21)", "group": "intelsat", "lat": 0.009601917686815063, "lon": 167.0696564233716, "alt_km": 35786.18405214537, "timestamp": "2025-12-09T09:46:47.314927+00:00", "meta": {"OBJECT_NAME": "INTELSAT 21 (IS-21)", "OBJECT_ID": "2012-045A", "EPOCH": "2025-12-09T03:40:38.494848", "MEAN_MOTION": 1.00270478, "ECCENTRICITY": 0.0002174, "INCLINATION": 0.0113, "RA_OF_ASC_NODE": 32.5169, "ARG_OF_PERICENTER": 222.6895, "MEAN_ANOMALY": 180.1056, "EPHEMERIS_TYPE": 0, "CLASSIFICATION_TYPE": "U", "NORAD_CAT_ID": 38749, "ELEMENT_SET_NO": 999, "REV_AT_EPOCH": 4861, "BSTAR": 0, "MEAN_MOTION_DOT": -2.83e-06, "MEAN_MOTION_DDOT": 0}, "tle": {"line1": "1 38749U 12045A   25343.15322332 -.00000283  00000+0  00000+0 0  9993", "line2": "2 38749   0.0113  32.5169 0002174 222.6895 180.1056  1.00270478 48611"}}, "geometry": {"type": "Point", "coordinates": [167.0696564233716, 0.009601917686815063]}}, {"type": "Feature", "properties": {"norad_id": 38867, "name": "INTELSAT 23 (IS-23)", "group": "intelsat", "lat": 0.031817557451695115, "lon": 172.05914408260406, "alt_km": 35781.392837688654, "timestamp": "2025-12-09T09:46:47.314939+00:00", "meta": {"OBJECT_NAME": "INTELSAT 23 (IS-23)", "OBJECT_ID": "2012-057A", "EPOCH": "2025-12-08T21:54:46.242144", "MEAN_MOTION": 1.00260603, "ECCENTRICITY": 0.00020701, "INCLINATION": 0.0414, "RA_OF_ASC_NODE": 93.9999, "ARG_OF_PERICENTER": 103.0595, "MEAN_ANOMALY": 156.5414, "EPHEMERIS_TYPE": 0, "CLASSIFICATION_TYPE": "U", "NORAD_CAT_ID": 38867, "ELEMENT_SET_NO": 999, "REV_AT_EPOCH": 4804, "BSTAR": 0, "MEAN_MOTION_DOT": -2.83e-06, "MEAN_MOTION_DDOT": 0}, "tle": {"line1": "1 38867U 12057A   25342.91303521 -.00000283  00000+0  00000+0 0  9999", "line2": "2 38867   0.0414  93.9999 0002070 103.0595 156.5414  1.00260603 48043"}}, "geometry": {"type": "Point", "coordinates": [172.05914408260406, 0.031817557451695115]}}, {"type": "Feature", "properties": {"norad_id": 39360, "name": "FM-6", "group": "intelsat", "lat": 0.005076420513629511, "lon": 108.90538110058341, "alt_km": 35781.18322359589, "timestamp": "2025-12-09T09:46:47.314952+00:00", "meta": {"OBJECT_NAME": "FM-6", "OBJECT_ID": "2013-058A", "EPOCH": "2025-12-08T13:15:20.428992", "MEAN_MOTION": 1.0026711, "ECCENTRICITY": 0.000319, "INCLINATION": 0.0119, "RA_OF_ASC_NODE": 96.1147, "ARG_OF_PERICENTER": 75.3013, "MEAN_ANOMALY": 348.8342, "EPHEMERIS_TYPE": 0, "CLASSIFICATION_TYPE": "U", "NORAD_CAT_ID": 39360, "ELEMENT_SET_NO": 999, "REV_AT_EPOCH": 4416, "BSTAR": 0, "MEAN_MOTION_DOT": -1.4e-07, "MEAN_MOTION_DDOT": 0}, "tle": {"line1": "1 39360U 13058A   25342.55231978 -.00000014  00000+0  00000+0 0  9998", "line2": "2 39360   0.0119  96.1147 0003190  75.3013 348.8342  1.00267110 44169"}}, "geometry": {"type": "Point", "coordinates": [108.90538110058341, 0.005076420513629511]}}, {"type": "Feature", "properties": {"norad_id": 40271, "name": "INTELSAT 30 (IS-30)", "group": "intelsat", "lat": 0.024161916041786972, "lon": 130.0478624003991, "alt_km": 35781.825468728595, "timestamp": "2025-12-09T09:46:47.314964+00:00", "meta": {"OBJECT_NAME": "INTELSAT 30 (IS-30)", "OBJECT_ID": "2014-062A", "EPOCH": "2025-12-09T04:04:38.821728", "MEAN_MOTION": 1.00272205, "ECCENTRICITY": 0.000131, "INCLINATION": 0.013, "RA_OF_ASC_NODE": 15.3198, "ARG_OF_PERICENTER": 73.1869, "MEAN_ANOMALY": 315.7647, "EPHEMERIS_TYPE": 0, "CLASSIFICATION_TYPE": "U", "NORAD_CAT_ID": 40271, "ELEMENT_SET_NO": 999, "REV_AT_EPOCH": 487, "BSTAR": 0, "MEAN_MOTION_DOT": -1.49e-06, "MEAN_MOTION_DDOT": 0}, "tle": {"line1": "1 40271U 14062A   25343.16989377 -.00000149  00000+0  00000+0 0  9997", "line2": "2 40271   0.0130  15.3198 0001310  73.1869 315.7647  1.00272205  4877"}}, "geometry": {"type": "Point", "coordinates": [130.0478624003991, 0.024161916041786972]}}, {"type": "Feature", "properties": {"norad_id": 40333, "name": "DIRECTV 14", "group": "intelsat", "lat": 0.018202746354818406, "lon": 125.87089599058434, "alt_km": 35786.67439816284, "timestamp": "2025-12-09T09:46:47.314976+00:00", "meta": {"OBJECT_NAME": "DIRECTV 14", "OBJECT_ID": "2014-078B", "EPOCH": "2025-12-09T04:26:37.402368", "MEAN_MOTION": 1.00269626, "ECCENTRICITY": 2.67e-05, "INCLINATION": 0.0173, "RA_OF_ASC_NODE": 330.7931, "ARG_OF_PERICENTER": 243.889, "MEAN_ANOMALY": 190.9367, "EPHEMERIS_TYPE": 0, "CLASSIFICATION_TYPE": "U", "NORAD_CAT_ID": 40333, "ELEMENT_SET_NO": 999, "REV_AT_EPOCH": 4013, "BSTAR": 0, "MEAN_MOTION_DOT": -1.23e-06, "MEAN_MOTION_DDOT": 0}, "tle": {"line1": "1 40333U 14078B   25343.18515512 -.00000123  00000+0  00000+0 0  9993", "line2": "2 40333   0.0173 330.7931 0000267 243.8890 190.9367  1.00269626 40136"}}, "geometry": {"type": "Point", "coordinates": [125.87089599058434, 0.018202746354818406]}}, {"type": "Feature", "properties": {"norad_id": 40663, "name": "DIRECTV 15", "group": "intelsat", "lat": 0.035338936648022824, "lon": 122.22403690504156, "alt_km": 35788.10987813666, "timestamp": "2025-12-09T09:46:47.314989+00:00", "meta": {"OBJECT_NAME": "DIRECTV 15", "OBJECT_ID": "2015-026A", "EPOCH": "2025-12-08T14:49:37.716960", "MEAN_MOTION": 1.0026899, "ECCENTRICITY": 3.149e-05, "INCLINATION": 0.0368, "RA_OF_ASC_NODE": 78.2463, "ARG_OF_PERICENTER": 203.1344, "MEAN_ANOMALY": 275.7875, "EPHEMERIS_TYPE": 0, "CLASSIFICATION_TYPE": "U", "NORAD_CAT_ID": 40663, "ELEMENT_SET_NO": 999, "REV_AT_EPOCH": 3855, "BSTAR": 0, "MEAN_MOTION_DOT": -1e-06, "MEAN_MOTION_DDOT": 0}, "tle": {"line1": "1 40663U 15026A   25342.61779765 -.00000100  00000+0  00000+0 0  9997", "line2": "2 40663   0.0368  78.2463 0000314 203.1344 275.7875  1.00268990 38550"}}, "geometry": {"type": "Point", "coordinates": [122.22403690504156, 0.035338936648022824]}}]}